FENGYUN 2G AKM          
1 40369U 14090C   26094.54456395  .00000116  00000+0  00000+0 0  9994
2 40369   7.3733  69.4916 0047177 172.7066 187.4121  0.99585208 40900
MUOS-3                  
1 40374U 15002A   26094.17316646 -.00000127  00000+0  00000+0 0  9990
2 40374   4.3791  43.1473 0051717 182.8064  13.4315  1.00271518 40844
INMARSAT 5-F2           
1 40384U 15005A   26094.45061039  .00000000  00000+0  00000+0 0  9997
2 40384   0.0157 193.3033 0000907 187.1438 279.5380  1.00267937 40254
BREEZE-M R/B            
1 40385U 15005B   26094.57877734 -.00000385  00000+0  00000+0 0  9995
2 40385  27.2646 280.2401 7561992 120.2876 333.3875  1.11107278 45336
ABS-3A                  
1 40424U 15010A   26094.17567980 -.00000027  00000+0  00000+0 0  9993
2 40424   0.0111 218.5141 0001665 106.0865 288.1658  1.00273653 40633
EUTELSAT 115 WEST B     
1 40425U 15010B   26094.08216610 -.00000026  00000+0  00000+0 0  9994
2 40425   0.0257  45.2121 0000172 183.7729 238.1041  1.00272107 40657
MMS 1                   
1 40482U 15011A   26094.25002315 -.00001255  00000+0  00000+0 0  9997
2 40482  71.1346 349.8029 8386441 165.8179 316.5416  0.28338620  1300
MMS 2                   
1 40483U 15011B   26094.25002315 -.00001255  00000+0  00000+0 0  9998
2 40483  71.1348 349.8051 8387189 165.8239 316.5264  0.28338619  1304
MMS 3                   
1 40484U 15011C   26094.25002315 -.00001255  00000+0  00000+0 0  9999
2 40484  71.1374 349.8097 8386443 165.8182 316.5312  0.28338575  1308
MMS 4                   
1 40485U 15011D   26094.25002315 -.00001255  00000+0  00000+0 0  9990
2 40485  71.1349 349.8050 8385972 165.8256 316.5180  0.28338570  1306
EXPRESS-AM7             
1 40505U 15012A   26094.18417318  .00000000  00000+0  00000+0 0  9995
2 40505   0.0207 217.3486 0003134 151.2212 290.2430  1.00268922 40263
BEIDOU-3S IGSO-1S       
1 40549U 15019A   26082.29086919 -.00000163  00000+0  00000+0 0  9999
2 40549  49.3559 296.4949 0036261 190.1236 255.1180  1.00268843 40213
THOR 7                  
1 40613U 15022A   26094.17611315 -.00000009  00000+0  00000+0 0  9998
2 40613   0.0228 122.3997 0002697 254.0174 238.8118  1.00272026 40070
TURKMENALEM52E/MONACOSAT
1 40617U 15023A   26094.24350380  .00000103  00000+0  00000+0 0  9997
2 40617   0.0160 120.0784 0003098 256.1585 316.0048  1.00270132 40104
DIRECTV 15              
1 40663U 15026A   26094.05530909 -.00000103  00000+0  00000+0 0  9998
2 40663   0.0354  90.1630 0000303  61.0471 318.1889  1.00271485 39724
SKY MEXICO-1            
1 40664U 15026B   26094.16059974 -.00000235  00000+0  00000+0 0  9995
2 40664   0.0135 134.6612 0002558 264.2120 132.6117  1.00272005 39719
METEOSAT-11 (MSG-4)     
1 40732U 15034A   26094.17810648  .00000063  00000+0  00000+0 0  9992
2 40732   3.0159  71.4966 0001746 284.9354 269.4795  1.00275817  6472
