[{"OBJECT_NAME":"FENGYUN 2G AKM","OBJECT_ID":"2014-090C","EPOCH":"2026-04-04T13:04:10.325280","MEAN_MOTION":0.99585208,"ECCENTRICITY":0.0047177,"INCLINATION":7.3733,"RA_OF_ASC_NODE":69.4916,"ARG_OF_PERICENTER":172.7066,"MEAN_ANOMALY":187.4121,"EPHEMERIS_TYPE":0,"CLASSIFICATION_TYPE":"U","NORAD_CAT_ID":40369,"ELEMENT_SET_NO":999,"REV_AT_EPOCH":4090,"BSTAR":0,"MEAN_MOTION_DOT":1.16e-6,"MEAN_MOTION_DDOT":0},{"OBJECT_NAME":"MUOS-3","OBJECT_ID":"2015-002A","EPOCH":"2026-04-04T04:09:21.582144","MEAN_MOTION":1.00271518,"ECCENTRICITY":0.00517176,"INCLINATION":4.3791,"RA_OF_ASC_NODE":43.1473,"ARG_OF_PERICENTER":182.8064,"MEAN_ANOMALY":13.4315,"EPHEMERIS_TYPE":0,"CLASSIFICATION_TYPE":"U","NORAD_CAT_ID":40374,"ELEMENT_SET_NO":999,"REV_AT_EPOCH":4084,"BSTAR":0,"MEAN_MOTION_DOT":-1.27e-6,"MEAN_MOTION_DDOT":0},{"OBJECT_NAME":"INMARSAT 5-F2","OBJECT_ID":"2015-005A","EPOCH":"2026-04-04T10:48:52.737696","MEAN_MOTION":1.00267937,"ECCENTRICITY":9.075e-5,"INCLINATION":0.0157,"RA_OF_ASC_NODE":193.3033,"ARG_OF_PERICENTER":187.1438,"MEAN_ANOMALY":279.538,"EPHEMERIS_TYPE":0,"CLASSIFICATION_TYPE":"U","NORAD_CAT_ID":40384,"ELEMENT_SET_NO":999,"REV_AT_EPOCH":4025,"BSTAR":0,"MEAN_MOTION_DOT":0,"MEAN_MOTION_DDOT":0},{"OBJECT_NAME":"BREEZE-M R/B","OBJECT_ID":"2015-005B","EPOCH":"2026-04-04T13:53:26.362176","MEAN_MOTION":1.11107278,"ECCENTRICITY":0.7561992,"INCLINATION":27.2646,"RA_OF_ASC_NODE":280.2401,"ARG_OF_PERICENTER":120.2876,"MEAN_ANOMALY":333.3875,"EPHEMERIS_TYPE":0,"CLASSIFICATION_TYPE":"U","NORAD_CAT_ID":40385,"ELEMENT_SET_NO":999,"REV_AT_EPOCH":4533,"BSTAR":0,"MEAN_MOTION_DOT":-3.85e-6,"MEAN_MOTION_DDOT":0},{"OBJECT_NAME":"ABS-3A","OBJECT_ID":"2015-010A","EPOCH":"2026-04-04T04:12:58.734720","MEAN_MOTION":1.00273653,"ECCENTRICITY":0.0001665,"INCLINATION":0.0111,"RA_OF_ASC_NODE":218.5141,"ARG_OF_PERICENTER":106.0865,"MEAN_ANOMALY":288.1658,"EPHEMERIS_TYPE":0,"CLASSIFICATION_TYPE":"U","NORAD_CAT_ID":40424,"ELEMENT_SET_NO":999,"REV_AT_EPOCH":4063,"BSTAR":0,"MEAN_MOTION_DOT":-2.7e-7,"MEAN_MOTION_DDOT":0},{"OBJECT_NAME":"EUTELSAT 115 WEST B","OBJECT_ID":"2015-010B","EPOCH":"2026-04-04T01:58:19.151040","MEAN_MOTION":1.00272107,"ECCENTRICITY":1.722e-5,"INCLINATION":0.0257,"RA_OF_ASC_NODE":45.2121,"ARG_OF_PERICENTER":183.7729,"MEAN_ANOMALY":238.1041,"EPHEMERIS_TYPE":0,"CLASSIFICATION_TYPE":"U","NORAD_CAT_ID":40425,"ELEMENT_SET_NO":999,"REV_AT_EPOCH":4065,"BSTAR":0,"MEAN_MOTION_DOT":-2.6e-7,"MEAN_MOTION_DDOT":0},{"OBJECT_NAME":"MMS 1","OBJECT_ID":"2015-011A","EPOCH":"2026-04-04T06:00:02.000160","MEAN_MOTION":0.2833862,"ECCENTRICITY":0.83864416,"INCLINATION":71.1346,"RA_OF_ASC_NODE":349.8029,"ARG_OF_PERICENTER":165.8179,"MEAN_ANOMALY":316.5416,"EPHEMERIS_TYPE":0,"CLASSIFICATION_TYPE":"U","NORAD_CAT_ID":40482,"ELEMENT_SET_NO":999,"REV_AT_EPOCH":130,"BSTAR":0,"MEAN_MOTION_DOT":-1.255e-5,"MEAN_MOTION_DDOT":0},{"OBJECT_NAME":"MMS 2","OBJECT_ID":"2015-011B","EPOCH":"2026-04-04T06:00:02.000160","MEAN_MOTION":0.28338619,"ECCENTRICITY":0.83871894,"INCLINATION":71.1348,"RA_OF_ASC_NODE":349.8051,"ARG_OF_PERICENTER":165.8239,"MEAN_ANOMALY":316.5264,"EPHEMERIS_TYPE":0,"CLASSIFICATION_TYPE":"U","NORAD_CAT_ID":40483,"ELEMENT_SET_NO":999,"REV_AT_EPOCH":130,"BSTAR":0,"MEAN_MOTION_DOT":-1.255e-5,"MEAN_MOTION_DDOT":0},{"OBJECT_NAME":"MMS 3","OBJECT_ID":"2015-011C","EPOCH":"2026-04-04T06:00:02.000160","MEAN_MOTION":0.28338575,"ECCENTRICITY":0.83864438,"INCLINATION":71.1374,"RA_OF_ASC_NODE":349.8097,"ARG_OF_PERICENTER":165.8182,"MEAN_ANOMALY":316.5312,"EPHEMERIS_TYPE":0,"CLASSIFICATION_TYPE":"U","NORAD_CAT_ID":40484,"ELEMENT_SET_NO":999,"REV_AT_EPOCH":130,"BSTAR":0,"MEAN_MOTION_DOT":-1.255e-5,"MEAN_MOTION_DDOT":0},{"OBJECT_NAME":"MMS 4","OBJECT_ID":"2015-011D","EPOCH":"2026-04-04T06:00:02.000160","MEAN_MOTION":0.2833857,"ECCENTRICITY":0.83859728,"INCLINATION":71.1349,"RA_OF_ASC_NODE":349.805,"ARG_OF_PERICENTER":165.8256,"MEAN_ANOMALY":316.518,"EPHEMERIS_TYPE":0,"CLASSIFICATION_TYPE":"U","NORAD_CAT_ID":40485,"ELEMENT_SET_NO":999,"REV_AT_EPOCH":130,"BSTAR":0,"MEAN_MOTION_DOT":-1.255e-5,"MEAN_MOTION_DDOT":0},{"OBJECT_NAME":"EXPRESS-AM7","OBJECT_ID":"2015-012A","EPOCH":"2026-04-04T04:25:12.562752","MEAN_MOTION":1.00268922,"ECCENTRICITY":0.00031348,"INCLINATION":0.0207,"RA_OF_ASC_NODE":217.3486,"ARG_OF_PERICENTER":151.2212,"MEAN_ANOMALY":290.243,"EPHEMERIS_TYPE":0,"CLASSIFICATION_TYPE":"U","NORAD_CAT_ID":40505,"ELEMENT_SET_NO":999,"REV_AT_EPOCH":4026,"BSTAR":0,"MEAN_MOTION_DOT":0,"MEAN_MOTION_DDOT":0},{"OBJECT_NAME":"BEIDOU-3S IGSO-1S","OBJECT_ID":"2015-019A","EPOCH":"2026-03-23T06:58:51.098016","MEAN_MOTION":1.00268843,"ECCENTRICITY":0.0036261,"INCLINATION":49.3559,"RA_OF_ASC_NODE":296.4949,"ARG_OF_PERICENTER":190.1236,"MEAN_ANOMALY":255.118,"EPHEMERIS_TYPE":0,"CLASSIFICATION_TYPE":"U","NORAD_CAT_ID":40549,"ELEMENT_SET_NO":999,"REV_AT_EPOCH":4021,"BSTAR":0,"MEAN_MOTION_DOT":-1.63e-6,"MEAN_MOTION_DDOT":0},{"OBJECT_NAME":"THOR 7","OBJECT_ID":"2015-022A","EPOCH":"2026-04-04T04:13:36.176160","MEAN_MOTION":1.00272026,"ECCENTRICITY":0.00026978,"INCLINATION":0.0228,"RA_OF_ASC_NODE":122.3997,"ARG_OF_PERICENTER":254.0174,"MEAN_ANOMALY":238.8118,"EPHEMERIS_TYPE":0,"CLASSIFICATION_TYPE":"U","NORAD_CAT_ID":40613,"ELEMENT_SET_NO":999,"REV_AT_EPOCH":4007,"BSTAR":0,"MEAN_MOTION_DOT":-9.0e-8,"MEAN_MOTION_DDOT":0},{"OBJECT_NAME":"TURKMENALEM52E/MONACOSAT","OBJECT_ID":"2015-023A","EPOCH":"2026-04-04T05:50:38.728320","MEAN_MOTION":1.00270132,"ECCENTRICITY":0.00030981,"INCLINATION":0.016,"RA_OF_ASC_NODE":120.0784,"ARG_OF_PERICENTER":256.1585,"MEAN_ANOMALY":316.0048,"EPHEMERIS_TYPE":0,"CLASSIFICATION_TYPE":"U","NORAD_CAT_ID":40617,"ELEMENT_SET_NO":999,"REV_AT_EPOCH":4010,"BSTAR":0,"MEAN_MOTION_DOT":1.03e-6,"MEAN_MOTION_DDOT":0},{"OBJECT_NAME":"DIRECTV 15","OBJECT_ID":"2015-026A","EPOCH":"2026-04-04T01:19:38.705376","MEAN_MOTION":1.00271485,"ECCENTRICITY":3.031e-5,"INCLINATION":0.0354,"RA_OF_ASC_NODE":90.163,"ARG_OF_PERICENTER":61.0471,"MEAN_ANOMALY":318.1889,"EPHEMERIS_TYPE":0,"CLASSIFICATION_TYPE":"U","NORAD_CAT_ID":40663,"ELEMENT_SET_NO":999,"REV_AT_EPOCH":3972,"BSTAR":0,"MEAN_MOTION_DOT":-1.03e-6,"MEAN_MOTION_DDOT":0},{"OBJECT_NAME":"SKY MEXICO-1","OBJECT_ID":"2015-026B","EPOCH":"2026-04-04T03:51:15.817536","MEAN_MOTION":1.00272005,"ECCENTRICITY":0.00025585,"INCLINATION":0.0135,"RA_OF_ASC_NODE":134.6612,"ARG_OF_PERICENTER":264.212,"MEAN_ANOMALY":132.6117,"EPHEMERIS_TYPE":0,"CLASSIFICATION_TYPE":"U","NORAD_CAT_ID":40664,"ELEMENT_SET_NO":999,"REV_AT_EPOCH":3971,"BSTAR":0,"MEAN_MOTION_DOT":-2.35e-6,"MEAN_MOTION_DDOT":0},{"OBJECT_NAME":"METEOSAT-11 (MSG-4)","OBJECT_ID":"2015-034A","EPOCH":"2026-04-04T04:16:28.399872","MEAN_MOTION":1.00275817,"ECCENTRICITY":0.00017463,"INCLINATION":3.0159,"RA_OF_ASC_NODE":71.4966,"ARG_OF_PERICENTER":284.9354,"MEAN_ANOMALY":269.4795,"EPHEMERIS_TYPE":0,"CLASSIFICATION_TYPE":"U","NORAD_CAT_ID":40732,"ELEMENT_SET_NO":999,"REV_AT_EPOCH":647,"BSTAR":0,"MEAN_MOTION_DOT":6.3e-7,"MEAN_MOTION_DDOT":0}]
